{"type": "FeatureCollection", "features": [ {"type": "Feature", "properties": {"norad_id": 34432, "name": "COSMOS 2251 DEB", "group": "cosmos-2251-debris", "lat": -73.63951401160053, "lon": -13.134807843397565, "alt_km": 912.9524972410591, "timestamp": "2025-12-22T05:49:03.895572+00:00", "meta": {"OBJECT_NAME": "COSMOS 2251 DEB", "OBJECT_ID": "1993-036RZ", "EPOCH": "2025-12-21T17:09:52.890336", "MEAN_MOTION": 14.02941941, "ECCENTRICITY": 0.0181742, "INCLINATION": 73.8282, "RA_OF_ASC_NODE": 86.5116, "ARG_OF_PERICENTER": 167.7838, "MEAN_ANOMALY": 316.0088, "EPHEMERIS_TYPE": 0, "CLASSIFICATION_TYPE": "U", "NORAD_CAT_ID": 34432, "ELEMENT_SET_NO": 999, "REV_AT_EPOCH": 85810, "BSTAR": 0.00083158, "MEAN_MOTION_DOT": 1.467e-05, "MEAN_MOTION_DDOT": 0}, "tle": {"line1": "1 34432U 93036RZ  25355.71519549  .00001467  00000+0  83158-3 0  9993", "line2": "2 34432  73.8282  86.5116 0181742 167.7838 316.0088 14.02941941858101"}}, "geometry": {"type": "Point", "coordinates": [-13.134807843397565, -73.63951401160053]}}, {"type": "Feature", "properties": {"norad_id": 34433, "name": "COSMOS 2251 DEB", "group": "cosmos-2251-debris", "lat": -73.97969641114572, "lon": 45.089842934799115, "alt_km": 746.4217240587359, "timestamp": "2025-12-22T05:49:03.895582+00:00", "meta": {"OBJECT_NAME": "COSMOS 2251 DEB", "OBJECT_ID": "1993-036SA", "EPOCH": "2025-12-21T20:02:32.024832", "MEAN_MOTION": 14.12888627, "ECCENTRICITY": 0.0152796, "INCLINATION": 74.0104, "RA_OF_ASC_NODE": 138.8303, "ARG_OF_PERICENTER": 274.9863, "MEAN_ANOMALY": 83.385, "EPHEMERIS_TYPE": 0, "CLASSIFICATION_TYPE": "U", "NORAD_CAT_ID": 34433, "ELEMENT_SET_NO": 999, "REV_AT_EPOCH": 86078, "BSTAR": 0.00089615, "MEAN_MOTION_DOT": 1.837e-05, "MEAN_MOTION_DDOT": 0}, "tle": {"line1": "1 34433U 93036SA  25355.83509288  .00001837  00000+0  89615-3 0  9991", "line2": "2 34433  74.0104 138.8303 0152796 274.9863  83.3850 14.12888627860783"}}, "geometry": {"type": "Point", "coordinates": [45.089842934799115, -73.97969641114572]}}, {"type": "Feature", "properties": {"norad_id": 34434, "name": "COSMOS 2251 DEB", "group": "cosmos-2251-debris", "lat": 74.04481825438309, "lon": 85.81435717468511, "alt_km": 762.9758828284675, "timestamp": "2025-12-22T05:49:03.895592+00:00", "meta": {"OBJECT_NAME": "COSMOS 2251 DEB", "OBJECT_ID": "1993-036SB", "EPOCH": "2025-12-21T19:19:23.758176", "MEAN_MOTION": 13.89859486, "ECCENTRICITY": 0.0273841, "INCLINATION": 74.0621, "RA_OF_ASC_NODE": 354.7068, "ARG_OF_PERICENTER": 129.8453, "MEAN_ANOMALY": 295.5498, "EPHEMERIS_TYPE": 0, "CLASSIFICATION_TYPE": "U", "NORAD_CAT_ID": 34434, "ELEMENT_SET_NO": 999, "REV_AT_EPOCH": 84092, "BSTAR": 0.0015956, "MEAN_MOTION_DOT": 2.634e-05, "MEAN_MOTION_DDOT": 0}, "tle": {"line1": "1 34434U 93036SB  25355.80513609  .00002634  00000+0  15956-2 0  9993", "line2": "2 34434  74.0621 354.7068 0273841 129.8453 295.5498 13.89859486840926"}}, "geometry": {"type": "Point", "coordinates": [85.81435717468511, 74.04481825438309]}}, {"type": "Feature", "properties": {"norad_id": 34446, "name": "COSMOS 2251 DEB", "group": "cosmos-2251-debris", "lat": 25.747653847792048, "lon": -148.47054436346784, "alt_km": 693.1181141240004, "timestamp": "2025-12-22T05:49:03.895602+00:00", "meta": {"OBJECT_NAME": "COSMOS 2251 DEB", "OBJECT_ID": "1993-036SP", "EPOCH": "2025-12-21T09:14:03.434208", "MEAN_MOTION": 14.49361872, "ECCENTRICITY": 0.00507278, "INCLINATION": 74.0417, "RA_OF_ASC_NODE": 41.0696, "ARG_OF_PERICENTER": 177.052, "MEAN_ANOMALY": 183.095, "EPHEMERIS_TYPE": 0, "CLASSIFICATION_TYPE": "U", "NORAD_CAT_ID": 34446, "ELEMENT_SET_NO": 999, "REV_AT_EPOCH": 88819, "BSTAR": 0.00010058627, "MEAN_MOTION_DOT": 3.62e-06, "MEAN_MOTION_DDOT": 0}, "tle": {"line1": "1 34446U 93036SP  25355.38476197  .00000362  00000+0  10059-3 0  9995", "line2": "2 34446  74.0417  41.0696 0050727 177.0520 183.0950 14.49361872888190"}}, "geometry": {"type": "Point", "coordinates": [-148.47054436346784, 25.747653847792048]}}, {"type": "Feature", "properties": {"norad_id": 34449, "name": "COSMOS 2251 DEB", "group": "cosmos-2251-debris", "lat": 60.561113631092454, "lon": 81.87515775709832, "alt_km": 560.558799013138, "timestamp": "2025-12-22T05:49:03.895613+00:00", "meta": {"OBJECT_NAME": "COSMOS 2251 DEB", "OBJECT_ID": "1993-036SS", "EPOCH": "2025-12-21T14:01:22.624032", "MEAN_MOTION": 14.9530995, "ECCENTRICITY": 0.0022739, "INCLINATION": 74.0321, "RA_OF_ASC_NODE": 52.7148, "ARG_OF_PERICENTER": 89.8054, "MEAN_ANOMALY": 34.0385, "EPHEMERIS_TYPE": 0, "CLASSIFICATION_TYPE": "U", "NORAD_CAT_ID": 34449, "ELEMENT_SET_NO": 999, "REV_AT_EPOCH": 88825, "BSTAR": 0.0018531, "MEAN_MOTION_DOT": 0.00020555, "MEAN_MOTION_DDOT": 0}, "tle": {"line1": "1 34449U 93036SS  25355.58428963  .00020555  00000+0  18531-2 0  9996", "line2": "2 34449  74.0321  52.7148 0022739  89.8054  34.0385 14.95309950888256"}}, "geometry": {"type": "Point", "coordinates": [81.87515775709832, 60.561113631092454]}}, {"type": "Feature", "properties": {"norad_id": 34451, "name": "COSMOS 2251 DEB", "group": "cosmos-2251-debris", "lat": 56.31819461489693, "lon": 94.11216272571062, "alt_km": 558.1480795064444, "timestamp": "2025-12-22T05:49:03.895623+00:00", "meta": {"OBJECT_NAME": "COSMOS 2251 DEB", "OBJECT_ID": "1993-036SU", "EPOCH": "2025-12-21T07:04:57.359712", "MEAN_MOTION": 14.96011908, "ECCENTRICITY": 0.0023754, "INCLINATION": 74.0465, "RA_OF_ASC_NODE": 70.6049, "ARG_OF_PERICENTER": 85.0662, "MEAN_ANOMALY": 275.3234, "EPHEMERIS_TYPE": 0, "CLASSIFICATION_TYPE": "U", "NORAD_CAT_ID": 34451, "ELEMENT_SET_NO": 999, "REV_AT_EPOCH": 88763, "BSTAR": 0.0019638, "MEAN_MOTION_DOT": 0.00022196, "MEAN_MOTION_DDOT": 0}, "tle": {"line1": "1 34451U 93036SU  25355.29510833  .00022196  00000+0  19638-2 0  9997", "line2": "2 34451  74.0465  70.6049 0023754  85.0662 275.3234 14.96011908887636"}}, "geometry": {"type": "Point", "coordinates": [94.11216272571062, 56.31819461489693]}}, {"type": "Feature", "properties": {"norad_id": 34452, "name": "COSMOS 2251 DEB", "group": "cosmos-2251-debris", "lat": -22.82409923386743, "lon": 156.2276335419335, "alt_km": 542.2202731598891, "timestamp": "2025-12-22T05:49:03.895633+00:00", "meta": {"OBJECT_NAME": "COSMOS 2251 DEB", "OBJECT_ID": "1993-036SV", "EPOCH": "2025-12-21T14:33:50.213088", "MEAN_MOTION": 15.11896714, "ECCENTRICITY": 0.0064823, "INCLINATION": 74.032, "RA_OF_ASC_NODE": 164.4646, "ARG_OF_PERICENTER": 238.7973, "MEAN_ANOMALY": 238.9314, "EPHEMERIS_TYPE": 0, "CLASSIFICATION_TYPE": "U", "NORAD_CAT_ID": 34452, "ELEMENT_SET_NO": 999, "REV_AT_EPOCH": 90796, "BSTAR": 0.0007039, "MEAN_MOTION_DOT": 0.00012659, "MEAN_MOTION_DDOT": 0}, "tle": {"line1": "1 34452U 93036SV  25355.60683117  .00012659  00000+0  70390-3 0  9995", "line2": "2 34452  74.0320 164.4646 0064823 238.7973 238.9314 15.11896714907963"}}, "geometry": {"type": "Point", "coordinates": [156.2276335419335, -22.82409923386743]}}, {"type": "Feature", "properties": {"norad_id": 34454, "name": "COSMOS 2251 DEB", "group": "cosmos-2251-debris", "lat": 33.963507997112124, "lon": -88.76251287671884, "alt_km": 753.0884774806273, "timestamp": "2025-12-22T05:49:03.895644+00:00", "meta": {"OBJECT_NAME": "COSMOS 2251 DEB", "OBJECT_ID": "1993-036SX", "EPOCH": "2025-12-21T19:38:29.894784", "MEAN_MOTION": 14.38821876, "ECCENTRICITY": 0.0035876, "INCLINATION": 74.0587, "RA_OF_ASC_NODE": 260.9179, "ARG_OF_PERICENTER": 321.6434, "MEAN_ANOMALY": 38.217, "EPHEMERIS_TYPE": 0, "CLASSIFICATION_TYPE": "U", "NORAD_CAT_ID": 34454, "ELEMENT_SET_NO": 999, "REV_AT_EPOCH": 88198, "BSTAR": 0.00018305, "MEAN_MOTION_DOT": 5.41e-06, "MEAN_MOTION_DDOT": 0}, "tle": {"line1": "1 34454U 93036SX  25355.81840156  .00000541  00000+0  18305-3 0  9993", "line2": "2 34454  74.0587 260.9179 0035876 321.6434  38.2170 14.38821876881982"}}, "geometry": {"type": "Point", "coordinates": [-88.76251287671884, 33.963507997112124]}}, {"type": "Feature", "properties": {"norad_id": 34459, "name": "COSMOS 2251 DEB", "group": "cosmos-2251-debris", "lat": 16.504699735556333, "lon": 52.77355293300343, "alt_km": 1002.0984554857996, "timestamp": "2025-12-22T05:49:03.895654+00:00", "meta": {"OBJECT_NAME": "COSMOS 2251 DEB", "OBJECT_ID": "1993-036TC", "EPOCH": "2025-12-21T03:18:49.772448", "MEAN_MOTION": 14.00511873, "ECCENTRICITY": 0.01921053, "INCLINATION": 74.0786, "RA_OF_ASC_NODE": 239.5333, "ARG_OF_PERICENTER": 307.4299, "MEAN_ANOMALY": 50.9486, "EPHEMERIS_TYPE": 0, "CLASSIFICATION_TYPE": "U", "NORAD_CAT_ID": 34459, "ELEMENT_SET_NO": 999, "REV_AT_EPOCH": 85829, "BSTAR": 0.00029726073, "MEAN_MOTION_DOT": 4.93e-06, "MEAN_MOTION_DDOT": 0}, "tle": {"line1": "1 34459U 93036TC  25355.13807607  .00000493  00000+0  29726-3 0  9992", "line2": "2 34459  74.0786 239.5333 0192105 307.4299  50.9486 14.00511873858293"}}, "geometry": {"type": "Point", "coordinates": [52.77355293300343, 16.504699735556333]}}, {"type": "Feature", "properties": {"norad_id": 34464, "name": "COSMOS 2251 DEB", "group": "cosmos-2251-debris", "lat": -27.198578577554727, "lon": 49.57573871324218, "alt_km": 486.65353911291186, "timestamp": "2025-12-22T05:49:03.895664+00:00", "meta": {"OBJECT_NAME": "COSMOS 2251 DEB", "OBJECT_ID": "1993-036TH", "EPOCH": "2025-12-21T11:05:18.165120", "MEAN_MOTION": 15.28193165, "ECCENTRICITY": 0.00146489, "INCLINATION": 73.9905, "RA_OF_ASC_NODE": 59.7213, "ARG_OF_PERICENTER": 242.0333, "MEAN_ANOMALY": 117.9387, "EPHEMERIS_TYPE": 0, "CLASSIFICATION_TYPE": "U", "NORAD_CAT_ID": 34464, "ELEMENT_SET_NO": 999, "REV_AT_EPOCH": 89973, "BSTAR": 0.0021789869, "MEAN_MOTION_DOT": 0.00060526, "MEAN_MOTION_DDOT": 0}, "tle": {"line1": "1 34464U 93036TH  25355.46201580  .00060526  00000+0  21790-2 0  9997", "line2": "2 34464  73.9905  59.7213 0014648 242.0333 117.9387 15.28193165899736"}}, "geometry": {"type": "Point", "coordinates": [49.57573871324218, -27.198578577554727]}}]}